GLOBALSTAR M063         
1 26081U 00008A   25328.16881889 -.00000064  00000+0  26717-3 0  9990
2 26081  51.9976  50.2328 0004214 254.0506 114.8854 11.86178031176561
GLOBALSTAR M062         
1 26082U 00008B   25328.42085608 -.00000087  00000+0  80948-4 0  9997
2 26082  51.9870 344.5792 0007328  94.5528  44.8974 12.43477374516557
GLOBALSTAR M060         
1 26083U 00008C   25328.39759073 -.00000122  00000+0 -31315-3 0  9992
2 26083  52.0040 327.3222 0003432  87.9480  60.0082 12.17667377171889
GLOBALSTAR M064         
1 26084U 00008D   25327.68001907 -.00000089  00000+0 -84382-4 0  9995
2 26084  51.9994 148.4702 0001944  44.6337 315.4652 11.88539174186064
GLOBALSTAR M065         
1 31571U 07020A   25328.53026588 -.00000079  00000+0  13740-3 0  9997
2 31571  51.9884  98.2276 0009111 304.9781 132.5923 12.62014674853657
GLOBALSTAR M069         
1 31573U 07020C   25328.45304022 -.00000084  00000+0  79819-4 0  9998
2 31573  52.0013 111.5998 0002812  94.6345 300.1499 12.23463886853746
GLOBALSTAR M072         
1 31574U 07020D   25328.32394064 -.00000069  00000+0  20020-3 0  9992
2 31574  51.9940 285.6469 0000917 305.1828 207.6901 11.91653426850550
GLOBALSTAR M071         
1 31576U 07020F   25328.43725541 -.00000081  00000+0  10235-3 0  9995
2 31576  52.0029 141.7819 0002007  86.0591 291.8282 12.18262480514478
